COMMENT,ORIGINATOR,NORAD_CAT_ID,OBJECT_NAME,OBJECT_TYPE,CLASSIFICATION_TYPE,INTLDES,EPOCH,EPOCH_MICROSECONDS,MEAN_MOTION,ECCENTRICITY,INCLINATION,RA_OF_ASC_NODE,ARG_OF_PERICENTER,MEAN_ANOMALY,EPHEMERIS_TYPE,ELEMENT_SET_NO,REV_AT_EPOCH,BSTAR,MEAN_MOTION_DOT,MEAN_MOTION_DDOT,FILE,TLE_LINE0,TLE_LINE1,TLE_LINE2,OBJECT_ID,OBJECT_NUMBER,SEMIMAJOR_AXIS,PERIOD,APOGEE,PERIGEE,DECAYED
"GENERATED VIA SPACETRACK.ORG API","18 SPCS","55089","SPACEBEE-163","PAYLOAD","U","23001CJ","2024-04-28 03:22:17","268096","15.45269945","0.0007098","97.4185","184.9093","315.5901","44.4777","0","999","7339","0.0020424","0.00098263","0","4301399","0 SPACEBEE-163","1 55089U 23001CJ  24119.14047764  .00098263  00000-0  20424-2 0  9995","2 55089  97.4185 184.9093 0007098 315.5901  44.4777 15.45269945 73390","2023-001CJ","55089","6808.722","93.188","435.420","425.754","0"
"GENERATED VIA SPACETRACK.ORG API","18 SPCS","55089","SPACEBEE-163","PAYLOAD","U","23001CJ","2024-04-28 03:22:17","268096","15.45269945","0.0007098","97.4185","184.9093","315.5901","44.4777","0","999","7339","0.0020424","0.00098263","0","4301411","0 SPACEBEE-163","1 55089U 23001CJ  24119.14047764  .00098263  00000-0  20424-2 0  9995","2 55089  97.4185 184.9093 0007098 315.5901  44.4777 15.45269945 73390","2023-001CJ","55089","6808.722","93.188","435.420","425.754","0"
"GENERATED VIA SPACETRACK.ORG API","18 SPCS","55089","SPACEBEE-163","PAYLOAD","U","23001CJ","2024-04-28 17:21:30","53664","15.45355665","0.0007157","97.4186","185.5053","313.3579","46.7073","0","999","7348","0.0015203","0.00073101","0","4301750","0 SPACEBEE-163","1 55089U 23001CJ  24119.72326451  .00073101  00000-0  15203-2 0  9995","2 55089  97.4186 185.5053 0007157 313.3579  46.7073 15.45355665 73486","2023-001CJ","55089","6808.470","93.182","435.208","425.462","0"
"GENERATED VIA SPACETRACK.ORG API","18 SPCS","55089","SPACEBEE-163","PAYLOAD","U","23001CJ","2024-04-28 22:01:13","634688","15.45382999","0.0007099","97.4186","185.7039","312.0046","48.0598","0","999","7351","0.0014154","0.0006807","0","4301761","0 SPACEBEE-163","1 55089U 23001CJ  24119.91751892  .00068070  00000-0  14154-2 0  9990","2 55089  97.4186 185.7039 0007099 312.0046  48.0598 15.45382999 73513","2023-001CJ","55089","6808.390","93.181","435.088","425.422","0"
"GENERATED VIA SPACETRACK.ORG API","18 SPCS","55089","SPACEBEE-163","PAYLOAD","U","23001CJ","2024-04-29 10:27:08","485632","15.45452459","0.0007045","97.4186","186.2341","310.2069","49.8563","0","999","7359","0.0012757","0.00061435","0","4302365","0 SPACEBEE-163","1 55089U 23001CJ  24120.43551488  .00061435  00000-0  12757-2 0  9993","2 55089  97.4186 186.2341 0007045 310.2069  49.8563 15.45452459 73599","2023-001CJ","55089","6808.186","93.177","434.847","425.255","0"
"GENERATED VIA SPACETRACK.ORG API","18 SPCS","55089","SPACEBEE-163","PAYLOAD","U","23001CJ","2024-04-29 16:40:05","234592","15.45485296","0.0007112","97.4185","186.4985","308.7094","51.3518","0","999","7363","0.0012779","0.00061612","0","4302696","0 SPACEBEE-163","1 55089U 23001CJ  24120.69450503  .00061612  00000-0  12779-2 0  9998","2 55089  97.4185 186.4985 0007112 308.7094  51.3518 15.45485296 73637","2023-001CJ","55089","6808.089","93.175","434.796","425.113","0"
"GENERATED VIA SPACETRACK.ORG API","18 SPCS","55089","SPACEBEE-163","PAYLOAD","U","23001CJ","2024-04-30 03:32:43","356192","15.45542162","0.0007131","97.4187","186.9612","305.5996","54.4588","0","999","7370","0.0012649","0.00061099","0","4303011","0 SPACEBEE-163","1 55089U 23001CJ  24121.14772403  .00061099  00000-0  12649-2 0  9990","2 55089  97.4187 186.9612 0007131 305.5996  54.4588 15.45542162 73703","2023-001CJ","55089","6807.923","93.171","434.642","424.933","0"
"GENERATED VIA SPACETRACK.ORG API","18 SPCS","55089","SPACEBEE-163","PAYLOAD","U","23001CJ","2024-04-30 03:32:43","356192","15.45542162","0.0007131","97.4187","186.9612","305.5996","54.4588","0","999","7370","0.0012649","0.00061099","0","4303298","0 SPACEBEE-163","1 55089U 23001CJ  24121.14772403  .00061099  00000-0  12649-2 0  9990","2 55089  97.4187 186.9612 0007131 305.5996  54.4588 15.45542162 73703","2023-001CJ","55089","6807.923","93.171","434.642","424.933","0"
"GENERATED VIA SPACETRACK.ORG API","18 SPCS","55089","SPACEBEE-163","PAYLOAD","U","23001CJ","2024-04-30 22:11:28","528800","15.45633817","0.0007179","97.4188","187.7559","302.4844","57.5711","0","999","7382","0.0014679","0.00071234","0","4303571","0 SPACEBEE-163","1 55089U 23001CJ  24121.92463575  .00071234  00000-0  14679-2 0  9990","2 55089  97.4188 187.7559 0007179 302.4844  57.5711 15.45633817 73826","2023-001CJ","55089","6807.653","93.166","434.406","424.631","0"
"GENERATED VIA SPACETRACK.ORG API","18 SPCS","55089","SPACEBEE-163","PAYLOAD","U","23001CJ","2024-05-01 04:24:22","631328","15.456738","0.0007164","97.4189","188.0207","301.221","58.8336","0","999","7386","0.0015511","0.00075419","0","4303889","0 SPACEBEE-163","1 55089U 23001CJ  24122.18359527  .00075419  00000-0  15511-2 0  9995","2 55089  97.4189 188.0207 0007164 301.2210  58.8336 15.45673800 73866","2023-001CJ","55089","6807.536","93.163","434.278","424.524","0"
"GENERATED VIA SPACETRACK.ORG API","18 SPCS","55089","SPACEBEE-163","PAYLOAD","U","23001CJ","2024-05-01 10:37:16","218912","15.45706607","0.0007177","97.4189","188.2861","300.4748","59.5791","0","999","7390","0.0016759","0.00081651","0","4304190","0 SPACEBEE-163","1 55089U 23001CJ  24122.44254883  .00081651  00000-0  16759-2 0  9993","2 55089  97.4189 188.2861 0007177 300.4748  59.5791 15.45706607 73905","2023-001CJ","55089","6807.440","93.161","434.190","424.419","0"
"GENERATED VIA SPACETRACK.ORG API","18 SPCS","55089","SPACEBEE-163","PAYLOAD","U","23001CJ","2024-05-02 03:42:41","267520","15.45790478","0.0007207","97.4189","189.014","296.8872","63.164","0","999","7401","0.0014078","0.00068658","0","4304812","0 SPACEBEE-163","1 55089U 23001CJ  24123.15464430  .00068658  00000-0  14078-2 0  9997","2 55089  97.4189 189.0140 0007207 296.8872  63.1640 15.45790478 74010","2023-001CJ","55089","6807.193","93.156","433.964","424.152","0"
"GENERATED VIA SPACETRACK.ORG API","18 SPCS","55089","SPACEBEE-163","PAYLOAD","U","23001CJ","2024-05-02 03:42:41","267520","15.45790478","0.0007207","97.4189","189.014","296.8872","63.164","0","999","7401","0.0014078","0.00068658","0","4305180","0 SPACEBEE-163","1 55089U 23001CJ  24123.15464430  .00068658  00000-0  14078-2 0  9997","2 55089  97.4189 189.0140 0007207 296.8872  63.1640 15.45790478 74010","2023-001CJ","55089","6807.193","93.156","433.964","424.152","0"
"GENERATED VIA SPACETRACK.ORG API","18 SPCS","55089","SPACEBEE-163","PAYLOAD","U","23001CJ","2024-05-03 10:46:54","914880","15.45984706","0.0007194","97.4192","190.3391","291.9621","68.0863","0","999","7421","0.0013765","0.00067567","0","4306116","0 SPACEBEE-163","1 55089U 23001CJ  24124.44924670  .00067567  00000-0  13765-2 0  9997","2 55089  97.4192 190.3391 0007194 291.9621  68.0863 15.45984706 74212","2023-001CJ","55089","6806.623","93.145","433.385","423.592","0"
"GENERATED VIA SPACETRACK.ORG API","18 SPCS","55089","SPACEBEE-163","PAYLOAD","U","23001CJ","2024-05-03 10:46:54","914880","15.45984706","0.0007194","97.4192","190.3391","291.9621","68.0863","0","999","7421","0.0013765","0.00067567","0","4306126","0 SPACEBEE-163","1 55089U 23001CJ  24124.44924670  .00067567  00000-0  13765-2 0  9997","2 55089  97.4192 190.3391 0007194 291.9621  68.0863 15.45984706 74212","2023-001CJ","55089","6806.623","93.145","433.385","423.592","0"
"GENERATED VIA SPACETRACK.ORG API","18 SPCS","55089","SPACEBEE-163","PAYLOAD","U","23001CJ","2024-05-03 16:59:43","970784","15.4601313","0.0007274","97.4193","190.6039","290.9038","69.1432","0","999","7425","0.0010316","0.00050555","0","4306422","0 SPACEBEE-163","1 55089U 23001CJ  24124.70814781  .00050555  00000-0  10316-2 0  9995","2 55089  97.4193 190.6039 0007274 290.9038  69.1432 15.46013130 74258","2023-001CJ","55089","6806.540","93.143","433.356","423.454","0"
"GENERATED VIA SPACETRACK.ORG API","18 SPCS","55089","SPACEBEE-163","PAYLOAD","U","23001CJ","2024-05-04 03:52:08","639904","15.46069172","0.0007338","97.4191","191.0669","288.349","71.6961","0","999","7432","0.00094079","0.00046161","0","4307108","0 SPACEBEE-163","1 55089U 23001CJ  24125.16121111  .00046161  00000-0  94079-3 0  9991","2 55089  97.4191 191.0669 0007338 288.3490  71.6961 15.46069172 74324","2023-001CJ","55089","6806.375","93.139","433.235","423.246","0"
"GENERATED VIA SPACETRACK.ORG API","18 SPCS","55089","SPACEBEE-163","PAYLOAD","U","23001CJ","2024-05-05 03:10:06","25152","15.4617936","0.0007454","97.419","192.06","284.5932","75.4491","0","999","7447","0.0013757","0.00067987","0","4307695","0 SPACEBEE-163","1 55089U 23001CJ  24126.13201418  .00067987  00000-0  13757-2 0  9990","2 55089  97.4190 192.0600 0007454 284.5932  75.4491 15.46179360 74474","2023-001CJ","55089","6806.052","93.133","432.990","422.844","0"
"GENERATED VIA SPACETRACK.ORG API","18 SPCS","55089","SPACEBEE-163","PAYLOAD","U","23001CJ","2024-05-05 03:10:06","25152","15.4617936","0.0007454","97.419","192.06","284.5932","75.4491","0","999","7447","0.0013757","0.00067987","0","4307968","0 SPACEBEE-163","1 55089U 23001CJ  24126.13201418  .00067987  00000-0  13757-2 0  9990","2 55089  97.4190 192.0600 0007454 284.5932  75.4491 15.46179360 74474","2023-001CJ","55089","6806.052","93.133","432.990","422.844","0"
"GENERATED VIA SPACETRACK.ORG API","18 SPCS","55089","SPACEBEE-163","PAYLOAD","U","23001CJ","2024-05-05 17:08:49","534080","15.46247756","0.0007504","97.4191","192.6564","283.0014","77.0397","0","999","7456","0.0013556","0.00067143","0","4308260","0 SPACEBEE-163","1 55089U 23001CJ  24126.71446220  .00067143  00000-0  13556-2 0  9997","2 55089  97.4191 192.6564 0007504 283.0014  77.0397 15.46247756 74569","2023-001CJ","55089","6805.851","93.129","432.823","422.609","0"
